STARLINK 001
1 70000U 98067A   26263.00000000  .00016717  00000-0  10270-3 0  9991
2 70000  51.6416 247.4627 0006703 130.5360 325.0288 15.72125391332617
COSMOS 002
1 70001U 98067A   26263.01000000  .00016717  00000-0  10270-3 0  9993
2 70001  51.6416 247.4627 0006703 130.5360 325.0288 15.72125391332618
IRIDIUM 003
1 70002U 98067A   26263.02000000  .00016717  00000-0  10270-3 0  9995
2 70002  51.6416 247.4627 0006703 130.5360 325.0288 15.72125391332619
ONEWEB 004
1 70003U 98067A   26263.03000000  .00016717  00000-0  10270-3 0  9997
2 70003  51.6416 247.4627 0006703 130.5360 325.0288 15.72125391332610
LEMUR 005
1 70004U 98067A   26263.04000000  .00016717  00000-0  10270-3 0  9999
2 70004  51.6416 247.4627 0006703 130.5360 325.0288 15.72125391332611
FLOCK 006
1 70005U 98067A   26263.05000000  .00016717  00000-0  10270-3 0  9991
2 70005  51.6416 247.4627 0006703 130.5360 325.0288 15.72125391332612
SL-16 R/B 007
1 70006U 98067A   26263.06000000  .00016717  00000-0  10270-3 0  9993
2 70006  51.6416 247.4627 0006703 130.5360 325.0288 15.72125391332613
ARIANE R/B 008
1 70007U 98067A   26263.07000000  .00016717  00000-0  10270-3 0  9995
2 70007  51.6416 247.4627 0006703 130.5360 325.0288 15.72125391332614
CZ-2C R/B 009
1 70008U 98067A   26263.08000000  .00016717  00000-0  10270-3 0  9997
2 70008  51.6416 247.4627 0006703 130.5360 325.0288 15.72125391332615
H-2A R/B 010
1 70009U 98067A   26263.09000000  .00016717  00000-0  10270-3 0  9999
2 70009  51.6416 247.4627 0006703 130.5360 325.0288 15.72125391332616
ATLAS CENTAUR R/B 011
1 70010U 98067A   26263.10000000  .00016717  00000-0  10270-3 0  9993
2 70010  51.6416 247.4627 0006703 130.5360 325.0288 15.72125391332618
DELTA R/B 012
1 70011U 98067A   26263.11000000  .00016717  00000-0  10270-3 0  9995
2 70011  51.6416 247.4627 0006703 130.5360 325.0288 15.72125391332619
FENGYUN 013
1 70012U 98067A   26263.12000000  .00016717  00000-0  10270-3 0  9997
2 70012  51.6416 247.4627 0006703 130.5360 325.0288 15.72125391332610
YAOGAN 014
1 70013U 98067A   26263.13000000  .00016717  00000-0  10270-3 0  9999
2 70013  51.6416 247.4627 0006703 130.5360 325.0288 15.72125391332611
GAOFEN 015
1 70014U 98067A   26263.14000000  .00016717  00000-0  10270-3 0  9991
2 70014  51.6416 247.4627 0006703 130.5360 325.0288 15.72125391332612
NOAA 016
1 70015U 98067A   26263.15000000  .00016717  00000-0  10270-3 0  9993
2 70015  51.6416 247.4627 0006703 130.5360 325.0288 15.72125391332613
METEOR 017
1 70016U 98067A   26263.16000000  .00016717  00000-0  10270-3 0  9995
2 70016  51.6416 247.4627 0006703 130.5360 325.0288 15.72125391332614
RESURS 018
1 70017U 98067A   26263.17000000  .00016717  00000-0  10270-3 0  9997
2 70017  51.6416 247.4627 0006703 130.5360 325.0288 15.72125391332615
TERRA 019
1 70018U 98067A   26263.18000000  .00016717  00000-0  10270-3 0  9999
2 70018  51.6416 247.4627 0006703 130.5360 325.0288 15.72125391332616
AQUA 020
1 70019U 98067A   26263.19000000  .00016717  00000-0  10270-3 0  9991
2 70019  51.6416 247.4627 0006703 130.5360 325.0288 15.72125391332617
STARLINK 021
1 70020U 98067A   26263.20000000  .00016717  00000-0  10270-3 0  9995
2 70020  51.6416 247.4627 0006703 130.5360 325.0288 15.72125391332619
COSMOS 022
1 70021U 98067A   26263.21000000  .00016717  00000-0  10270-3 0  9997
2 70021  51.6416 247.4627 0006703 130.5360 325.0288 15.72125391332610
IRIDIUM 023
1 70022U 98067A   26263.22000000  .00016717  00000-0  10270-3 0  9999
2 70022  51.6416 247.4627 0006703 130.5360 325.0288 15.72125391332611
ONEWEB 024
1 70023U 98067A   26263.23000000  .00016717  00000-0  10270-3 0  9991
2 70023  51.6416 247.4627 0006703 130.5360 325.0288 15.72125391332612
LEMUR 025
1 70024U 98067A   26263.24000000  .00016717  00000-0  10270-3 0  9993
2 70024  51.6416 247.4627 0006703 130.5360 325.0288 15.72125391332613
FLOCK 026
1 70025U 98067A   26263.25000000  .00016717  00000-0  10270-3 0  9995
2 70025  51.6416 247.4627 0006703 130.5360 325.0288 15.72125391332614
SL-16 R/B 027
1 70026U 98067A   26263.26000000  .00016717  00000-0  10270-3 0  9997
2 70026  51.6416 247.4627 0006703 130.5360 325.0288 15.72125391332615
ARIANE R/B 028
1 70027U 98067A   26263.27000000  .00016717  00000-0  10270-3 0  9999
2 70027  51.6416 247.4627 0006703 130.5360 325.0288 15.72125391332616
CZ-2C R/B 029
1 70028U 98067A   26263.28000000  .00016717  00000-0  10270-3 0  9991
2 70028  51.6416 247.4627 0006703 130.5360 325.0288 15.72125391332617
H-2A R/B 030
1 70029U 98067A   26263.29000000  .00016717  00000-0  10270-3 0  9993
2 70029  51.6416 247.4627 0006703 130.5360 325.0288 15.72125391332618
ATLAS CENTAUR R/B 031
1 70030U 98067A   26263.30000000  .00016717  00000-0  10270-3 0  9997
2 70030  51.6416 247.4627 0006703 130.5360 325.0288 15.72125391332610
DELTA R/B 032
1 70031U 98067A   26263.31000000  .00016717  00000-0  10270-3 0  9999
2 70031  51.6416 247.4627 0006703 130.5360 325.0288 15.72125391332611
FENGYUN 033
1 70032U 98067A   26263.32000000  .00016717  00000-0  10270-3 0  9991
2 70032  51.6416 247.4627 0006703 130.5360 325.0288 15.72125391332612
YAOGAN 034
1 70033U 98067A   26263.33000000  .00016717  00000-0  10270-3 0  9993
2 70033  51.6416 247.4627 0006703 130.5360 325.0288 15.72125391332613
GAOFEN 035
1 70034U 98067A   26263.34000000  .00016717  00000-0  10270-3 0  9995
2 70034  51.6416 247.4627 0006703 130.5360 325.0288 15.72125391332614
NOAA 036
1 70035U 98067A   26263.35000000  .00016717  00000-0  10270-3 0  9997
2 70035  51.6416 247.4627 0006703 130.5360 325.0288 15.72125391332615
METEOR 037
1 70036U 98067A   26263.36000000  .00016717  00000-0  10270-3 0  9999
2 70036  51.6416 247.4627 0006703 130.5360 325.0288 15.72125391332616
RESURS 038
1 70037U 98067A   26263.37000000  .00016717  00000-0  10270-3 0  9991
2 70037  51.6416 247.4627 0006703 130.5360 325.0288 15.72125391332617
TERRA 039
1 70038U 98067A   26263.38000000  .00016717  00000-0  10270-3 0  9993
2 70038  51.6416 247.4627 0006703 130.5360 325.0288 15.72125391332618
AQUA 040
1 70039U 98067A   26263.39000000  .00016717  00000-0  10270-3 0  9995
2 70039  51.6416 247.4627 0006703 130.5360 325.0288 15.72125391332619
STARLINK 041
1 70040U 98067A   26263.40000000  .00016717  00000-0  10270-3 0  9999
2 70040  51.6416 247.4627 0006703 130.5360 325.0288 15.72125391332611
COSMOS 042
1 70041U 98067A   26263.41000000  .00016717  00000-0  10270-3 0  9991
2 70041  51.6416 247.4627 0006703 130.5360 325.0288 15.72125391332612
IRIDIUM 043
1 70042U 98067A   26263.42000000  .00016717  00000-0  10270-3 0  9993
2 70042  51.6416 247.4627 0006703 130.5360 325.0288 15.72125391332613
ONEWEB 044
1 70043U 98067A   26263.43000000  .00016717  00000-0  10270-3 0  9995
2 70043  51.6416 247.4627 0006703 130.5360 325.0288 15.72125391332614
LEMUR 045
1 70044U 98067A   26263.44000000  .00016717  00000-0  10270-3 0  9997
2 70044  51.6416 247.4627 0006703 130.5360 325.0288 15.72125391332615
FLOCK 046
1 70045U 98067A   26263.45000000  .00016717  00000-0  10270-3 0  9999
2 70045  51.6416 247.4627 0006703 130.5360 325.0288 15.72125391332616
SL-16 R/B 047
1 70046U 98067A   26263.46000000  .00016717  00000-0  10270-3 0  9991
2 70046  51.6416 247.4627 0006703 130.5360 325.0288 15.72125391332617
ARIANE R/B 048
1 70047U 98067A   26263.47000000  .00016717  00000-0  10270-3 0  9993
2 70047  51.6416 247.4627 0006703 130.5360 325.0288 15.72125391332618
CZ-2C R/B 049
1 70048U 98067A   26263.48000000  .00016717  00000-0  10270-3 0  9995
2 70048  51.6416 247.4627 0006703 130.5360 325.0288 15.72125391332619
H-2A R/B 050
1 70049U 98067A   26263.49000000  .00016717  00000-0  10270-3 0  9997
2 70049  51.6416 247.4627 0006703 130.5360 325.0288 15.72125391332610
ATLAS CENTAUR R/B 051
1 70050U 98067A   26263.50000000  .00016717  00000-0  10270-3 0  9991
2 70050  51.6416 247.4627 0006703 130.5360 325.0288 15.72125391332612
DELTA R/B 052
1 70051U 98067A   26263.51000000  .00016717  00000-0  10270-3 0  9993
2 70051  51.6416 247.4627 0006703 130.5360 325.0288 15.72125391332613
FENGYUN 053
1 70052U 98067A   26263.52000000  .00016717  00000-0  10270-3 0  9995
2 70052  51.6416 247.4627 0006703 130.5360 325.0288 15.72125391332614
YAOGAN 054
1 70053U 98067A   26263.53000000  .00016717  00000-0  10270-3 0  9997
2 70053  51.6416 247.4627 0006703 130.5360 325.0288 15.72125391332615
GAOFEN 055
1 70054U 98067A   26263.54000000  .00016717  00000-0  10270-3 0  9999
2 70054  51.6416 247.4627 0006703 130.5360 325.0288 15.72125391332616
NOAA 056
1 70055U 98067A   26263.55000000  .00016717  00000-0  10270-3 0  9991
2 70055  51.6416 247.4627 0006703 130.5360 325.0288 15.72125391332617
METEOR 057
1 70056U 98067A   26263.56000000  .00016717  00000-0  10270-3 0  9993
2 70056  51.6416 247.4627 0006703 130.5360 325.0288 15.72125391332618
RESURS 058
1 70057U 98067A   26263.57000000  .00016717  00000-0  10270-3 0  9995
2 70057  51.6416 247.4627 0006703 130.5360 325.0288 15.72125391332619
TERRA 059
1 70058U 98067A   26263.58000000  .00016717  00000-0  10270-3 0  9997
2 70058  51.6416 247.4627 0006703 130.5360 325.0288 15.72125391332610
AQUA 060
1 70059U 98067A   26263.59000000  .00016717  00000-0  10270-3 0  9999
2 70059  51.6416 247.4627 0006703 130.5360 325.0288 15.72125391332611
STARLINK 061
1 70060U 98067A   26263.60000000  .00016717  00000-0  10270-3 0  9993
2 70060  51.6416 247.4627 0006703 130.5360 325.0288 15.72125391332613
COSMOS 062
1 70061U 98067A   26263.61000000  .00016717  00000-0  10270-3 0  9995
2 70061  51.6416 247.4627 0006703 130.5360 325.0288 15.72125391332614
IRIDIUM 063
1 70062U 98067A   26263.62000000  .00016717  00000-0  10270-3 0  9997
2 70062  51.6416 247.4627 0006703 130.5360 325.0288 15.72125391332615
ONEWEB 064
1 70063U 98067A   26263.63000000  .00016717  00000-0  10270-3 0  9999
2 70063  51.6416 247.4627 0006703 130.5360 325.0288 15.72125391332616
LEMUR 065
1 70064U 98067A   26263.64000000  .00016717  00000-0  10270-3 0  9991
2 70064  51.6416 247.4627 0006703 130.5360 325.0288 15.72125391332617
FLOCK 066
1 70065U 98067A   26263.65000000  .00016717  00000-0  10270-3 0  9993
2 70065  51.6416 247.4627 0006703 130.5360 325.0288 15.72125391332618
SL-16 R/B 067
1 70066U 98067A   26263.66000000  .00016717  00000-0  10270-3 0  9995
2 70066  51.6416 247.4627 0006703 130.5360 325.0288 15.72125391332619
ARIANE R/B 068
1 70067U 98067A   26263.67000000  .00016717  00000-0  10270-3 0  9997
2 70067  51.6416 247.4627 0006703 130.5360 325.0288 15.72125391332610
CZ-2C R/B 069
1 70068U 98067A   26263.68000000  .00016717  00000-0  10270-3 0  9999
2 70068  51.6416 247.4627 0006703 130.5360 325.0288 15.72125391332611
H-2A R/B 070
1 70069U 98067A   26263.69000000  .00016717  00000-0  10270-3 0  9991
2 70069  51.6416 247.4627 0006703 130.5360 325.0288 15.72125391332612
ATLAS CENTAUR R/B 071
1 70070U 98067A   26263.70000000  .00016717  00000-0  10270-3 0  9995
2 70070  51.6416 247.4627 0006703 130.5360 325.0288 15.72125391332614
DELTA R/B 072
1 70071U 98067A   26263.71000000  .00016717  00000-0  10270-3 0  9997
2 70071  51.6416 247.4627 0006703 130.5360 325.0288 15.72125391332615
FENGYUN 073
1 70072U 98067A   26263.72000000  .00016717  00000-0  10270-3 0  9999
2 70072  51.6416 247.4627 0006703 130.5360 325.0288 15.72125391332616
YAOGAN 074
1 70073U 98067A   26263.73000000  .00016717  00000-0  10270-3 0  9991
2 70073  51.6416 247.4627 0006703 130.5360 325.0288 15.72125391332617
GAOFEN 075
1 70074U 98067A   26263.74000000  .00016717  00000-0  10270-3 0  9993
2 70074  51.6416 247.4627 0006703 130.5360 325.0288 15.72125391332618
NOAA 076
1 70075U 98067A   26263.75000000  .00016717  00000-0  10270-3 0  9995
2 70075  51.6416 247.4627 0006703 130.5360 325.0288 15.72125391332619
METEOR 077
1 70076U 98067A   26263.76000000  .00016717  00000-0  10270-3 0  9997
2 70076  51.6416 247.4627 0006703 130.5360 325.0288 15.72125391332610
RESURS 078
1 70077U 98067A   26263.77000000  .00016717  00000-0  10270-3 0  9999
2 70077  51.6416 247.4627 0006703 130.5360 325.0288 15.72125391332611
TERRA 079
1 70078U 98067A   26263.78000000  .00016717  00000-0  10270-3 0  9991
2 70078  51.6416 247.4627 0006703 130.5360 325.0288 15.72125391332612
AQUA 080
1 70079U 98067A   26263.79000000  .00016717  00000-0  10270-3 0  9993
2 70079  51.6416 247.4627 0006703 130.5360 325.0288 15.72125391332613
STARLINK 081
1 70080U 98067A   26263.80000000  .00016717  00000-0  10270-3 0  9997
2 70080  51.6416 247.4627 0006703 130.5360 325.0288 15.72125391332615
COSMOS 082
1 70081U 98067A   26263.81000000  .00016717  00000-0  10270-3 0  9999
2 70081  51.6416 247.4627 0006703 130.5360 325.0288 15.72125391332616
IRIDIUM 083
1 70082U 98067A   26263.82000000  .00016717  00000-0  10270-3 0  9991
2 70082  51.6416 247.4627 0006703 130.5360 325.0288 15.72125391332617
ONEWEB 084
1 70083U 98067A   26263.83000000  .00016717  00000-0  10270-3 0  9993
2 70083  51.6416 247.4627 0006703 130.5360 325.0288 15.72125391332618
LEMUR 085
1 70084U 98067A   26263.84000000  .00016717  00000-0  10270-3 0  9995
2 70084  51.6416 247.4627 0006703 130.5360 325.0288 15.72125391332619
FLOCK 086
1 70085U 98067A   26263.85000000  .00016717  00000-0  10270-3 0  9997
2 70085  51.6416 247.4627 0006703 130.5360 325.0288 15.72125391332610
SL-16 R/B 087
1 70086U 98067A   26263.86000000  .00016717  00000-0  10270-3 0  9999
2 70086  51.6416 247.4627 0006703 130.5360 325.0288 15.72125391332611
ARIANE R/B 088
1 70087U 98067A   26263.87000000  .00016717  00000-0  10270-3 0  9991
2 70087  51.6416 247.4627 0006703 130.5360 325.0288 15.72125391332612
CZ-2C R/B 089
1 70088U 98067A   26263.88000000  .00016717  00000-0  10270-3 0  9993
2 70088  51.6416 247.4627 0006703 130.5360 325.0288 15.72125391332613
H-2A R/B 090
1 70089U 98067A   26263.89000000  .00016717  00000-0  10270-3 0  9995
2 70089  51.6416 247.4627 0006703 130.5360 325.0288 15.72125391332614
ATLAS CENTAUR R/B 091
1 70090U 98067A   26263.90000000  .00016717  00000-0  10270-3 0  9999
2 70090  51.6416 247.4627 0006703 130.5360 325.0288 15.72125391332616
DELTA R/B 092
1 70091U 98067A   26263.91000000  .00016717  00000-0  10270-3 0  9991
2 70091  51.6416 247.4627 0006703 130.5360 325.0288 15.72125391332617
FENGYUN 093
1 70092U 98067A   26263.92000000  .00016717  00000-0  10270-3 0  9993
2 70092  51.6416 247.4627 0006703 130.5360 325.0288 15.72125391332618
YAOGAN 094
1 70093U 98067A   26263.93000000  .00016717  00000-0  10270-3 0  9995
2 70093  51.6416 247.4627 0006703 130.5360 325.0288 15.72125391332619
GAOFEN 095
1 70094U 98067A   26263.94000000  .00016717  00000-0  10270-3 0  9997
2 70094  51.6416 247.4627 0006703 130.5360 325.0288 15.72125391332610
NOAA 096
1 70095U 98067A   26263.95000000  .00016717  00000-0  10270-3 0  9999
2 70095  51.6416 247.4627 0006703 130.5360 325.0288 15.72125391332611
METEOR 097
1 70096U 98067A   26263.96000000  .00016717  00000-0  10270-3 0  9991
2 70096  51.6416 247.4627 0006703 130.5360 325.0288 15.72125391332612
RESURS 098
1 70097U 98067A   26263.97000000  .00016717  00000-0  10270-3 0  9993
2 70097  51.6416 247.4627 0006703 130.5360 325.0288 15.72125391332613
TERRA 099
1 70098U 98067A   26263.98000000  .00016717  00000-0  10270-3 0  9995
2 70098  51.6416 247.4627 0006703 130.5360 325.0288 15.72125391332614
AQUA 100
1 70099U 98067A   26263.99000000  .00016717  00000-0  10270-3 0  9997
2 70099  51.6416 247.4627 0006703 130.5360 325.0288 15.72125391332615
STARLINK 101
1 70100U 98067A   26264.00000000  .00016717  00000-0  10270-3 0  9993
2 70100  51.6416 247.4627 0006703 130.5360 325.0288 15.72125391332618
COSMOS 102
1 70101U 98067A   26264.01000000  .00016717  00000-0  10270-3 0  9995
2 70101  51.6416 247.4627 0006703 130.5360 325.0288 15.72125391332619
IRIDIUM 103
1 70102U 98067A   26264.02000000  .00016717  00000-0  10270-3 0  9997
2 70102  51.6416 247.4627 0006703 130.5360 325.0288 15.72125391332610
ONEWEB 104
1 70103U 98067A   26264.03000000  .00016717  00000-0  10270-3 0  9999
2 70103  51.6416 247.4627 0006703 130.5360 325.0288 15.72125391332611
LEMUR 105
1 70104U 98067A   26264.04000000  .00016717  00000-0  10270-3 0  9991
2 70104  51.6416 247.4627 0006703 130.5360 325.0288 15.72125391332612
FLOCK 106
1 70105U 98067A   26264.05000000  .00016717  00000-0  10270-3 0  9993
2 70105  51.6416 247.4627 0006703 130.5360 325.0288 15.72125391332613
SL-16 R/B 107
1 70106U 98067A   26264.06000000  .00016717  00000-0  10270-3 0  9995
2 70106  51.6416 247.4627 0006703 130.5360 325.0288 15.72125391332614
ARIANE R/B 108
1 70107U 98067A   26264.07000000  .00016717  00000-0  10270-3 0  9997
2 70107  51.6416 247.4627 0006703 130.5360 325.0288 15.72125391332615
CZ-2C R/B 109
1 70108U 98067A   26264.08000000  .00016717  00000-0  10270-3 0  9999
2 70108  51.6416 247.4627 0006703 130.5360 325.0288 15.72125391332616
H-2A R/B 110
1 70109U 98067A   26264.09000000  .00016717  00000-0  10270-3 0  9991
2 70109  51.6416 247.4627 0006703 130.5360 325.0288 15.72125391332617
ATLAS CENTAUR R/B 111
1 70110U 98067A   26264.10000000  .00016717  00000-0  10270-3 0  9995
2 70110  51.6416 247.4627 0006703 130.5360 325.0288 15.72125391332619
DELTA R/B 112
1 70111U 98067A   26264.11000000  .00016717  00000-0  10270-3 0  9997
2 70111  51.6416 247.4627 0006703 130.5360 325.0288 15.72125391332610
FENGYUN 113
1 70112U 98067A   26264.12000000  .00016717  00000-0  10270-3 0  9999
2 70112  51.6416 247.4627 0006703 130.5360 325.0288 15.72125391332611
YAOGAN 114
1 70113U 98067A   26264.13000000  .00016717  00000-0  10270-3 0  9991
2 70113  51.6416 247.4627 0006703 130.5360 325.0288 15.72125391332612
GAOFEN 115
1 70114U 98067A   26264.14000000  .00016717  00000-0  10270-3 0  9993
2 70114  51.6416 247.4627 0006703 130.5360 325.0288 15.72125391332613
NOAA 116
1 70115U 98067A   26264.15000000  .00016717  00000-0  10270-3 0  9995
2 70115  51.6416 247.4627 0006703 130.5360 325.0288 15.72125391332614
METEOR 117
1 70116U 98067A   26264.16000000  .00016717  00000-0  10270-3 0  9997
2 70116  51.6416 247.4627 0006703 130.5360 325.0288 15.72125391332615
RESURS 118
1 70117U 98067A   26264.17000000  .00016717  00000-0  10270-3 0  9999
2 70117  51.6416 247.4627 0006703 130.5360 325.0288 15.72125391332616
TERRA 119
1 70118U 98067A   26264.18000000  .00016717  00000-0  10270-3 0  9991
2 70118  51.6416 247.4627 0006703 130.5360 325.0288 15.72125391332617
AQUA 120
1 70119U 98067A   26264.19000000  .00016717  00000-0  10270-3 0  9993
2 70119  51.6416 247.4627 0006703 130.5360 325.0288 15.72125391332618
STARLINK 121
1 70120U 98067A   26264.20000000  .00016717  00000-0  10270-3 0  9997
2 70120  51.6416 247.4627 0006703 130.5360 325.0288 15.72125391332610
COSMOS 122
1 70121U 98067A   26264.21000000  .00016717  00000-0  10270-3 0  9999
2 70121  51.6416 247.4627 0006703 130.5360 325.0288 15.72125391332611
IRIDIUM 123
1 70122U 98067A   26264.22000000  .00016717  00000-0  10270-3 0  9991
2 70122  51.6416 247.4627 0006703 130.5360 325.0288 15.72125391332612
ONEWEB 124
1 70123U 98067A   26264.23000000  .00016717  00000-0  10270-3 0  9993
2 70123  51.6416 247.4627 0006703 130.5360 325.0288 15.72125391332613
LEMUR 125
1 70124U 98067A   26264.24000000  .00016717  00000-0  10270-3 0  9995
2 70124  51.6416 247.4627 0006703 130.5360 325.0288 15.72125391332614
FLOCK 126
1 70125U 98067A   26264.25000000  .00016717  00000-0  10270-3 0  9997
2 70125  51.6416 247.4627 0006703 130.5360 325.0288 15.72125391332615
SL-16 R/B 127
1 70126U 98067A   26264.26000000  .00016717  00000-0  10270-3 0  9999
2 70126  51.6416 247.4627 0006703 130.5360 325.0288 15.72125391332616
ARIANE R/B 128
1 70127U 98067A   26264.27000000  .00016717  00000-0  10270-3 0  9991
2 70127  51.6416 247.4627 0006703 130.5360 325.0288 15.72125391332617
CZ-2C R/B 129
1 70128U 98067A   26264.28000000  .00016717  00000-0  10270-3 0  9993
2 70128  51.6416 247.4627 0006703 130.5360 325.0288 15.72125391332618
H-2A R/B 130
1 70129U 98067A   26264.29000000  .00016717  00000-0  10270-3 0  9995
2 70129  51.6416 247.4627 0006703 130.5360 325.0288 15.72125391332619
ATLAS CENTAUR R/B 131
1 70130U 98067A   26264.30000000  .00016717  00000-0  10270-3 0  9999
2 70130  51.6416 247.4627 0006703 130.5360 325.0288 15.72125391332611
DELTA R/B 132
1 70131U 98067A   26264.31000000  .00016717  00000-0  10270-3 0  9991
2 70131  51.6416 247.4627 0006703 130.5360 325.0288 15.72125391332612
FENGYUN 133
1 70132U 98067A   26264.32000000  .00016717  00000-0  10270-3 0  9993
2 70132  51.6416 247.4627 0006703 130.5360 325.0288 15.72125391332613
YAOGAN 134
1 70133U 98067A   26264.33000000  .00016717  00000-0  10270-3 0  9995
2 70133  51.6416 247.4627 0006703 130.5360 325.0288 15.72125391332614
GAOFEN 135
1 70134U 98067A   26264.34000000  .00016717  00000-0  10270-3 0  9997
2 70134  51.6416 247.4627 0006703 130.5360 325.0288 15.72125391332615
NOAA 136
1 70135U 98067A   26264.35000000  .00016717  00000-0  10270-3 0  9999
2 70135  51.6416 247.4627 0006703 130.5360 325.0288 15.72125391332616
METEOR 137
1 70136U 98067A   26264.36000000  .00016717  00000-0  10270-3 0  9991
2 70136  51.6416 247.4627 0006703 130.5360 325.0288 15.72125391332617
RESURS 138
1 70137U 98067A   26264.37000000  .00016717  00000-0  10270-3 0  9993
2 70137  51.6416 247.4627 0006703 130.5360 325.0288 15.72125391332618
TERRA 139
1 70138U 98067A   26264.38000000  .00016717  00000-0  10270-3 0  9995
2 70138  51.6416 247.4627 0006703 130.5360 325.0288 15.72125391332619
AQUA 140
1 70139U 98067A   26264.39000000  .00016717  00000-0  10270-3 0  9997
2 70139  51.6416 247.4627 0006703 130.5360 325.0288 15.72125391332610
STARLINK 141
1 70140U 98067A   26264.40000000  .00016717  00000-0  10270-3 0  9991
2 70140  51.6416 247.4627 0006703 130.5360 325.0288 15.72125391332612
COSMOS 142
1 70141U 98067A   26264.41000000  .00016717  00000-0  10270-3 0  9993
2 70141  51.6416 247.4627 0006703 130.5360 325.0288 15.72125391332613
IRIDIUM 143
1 70142U 98067A   26264.42000000  .00016717  00000-0  10270-3 0  9995
2 70142  51.6416 247.4627 0006703 130.5360 325.0288 15.72125391332614
ONEWEB 144
1 70143U 98067A   26264.43000000  .00016717  00000-0  10270-3 0  9997
2 70143  51.6416 247.4627 0006703 130.5360 325.0288 15.72125391332615
LEMUR 145
1 70144U 98067A   26264.44000000  .00016717  00000-0  10270-3 0  9999
2 70144  51.6416 247.4627 0006703 130.5360 325.0288 15.72125391332616
FLOCK 146
1 70145U 98067A   26264.45000000  .00016717  00000-0  10270-3 0  9991
2 70145  51.6416 247.4627 0006703 130.5360 325.0288 15.72125391332617
SL-16 R/B 147
1 70146U 98067A   26264.46000000  .00016717  00000-0  10270-3 0  9993
2 70146  51.6416 247.4627 0006703 130.5360 325.0288 15.72125391332618
ARIANE R/B 148
1 70147U 98067A   26264.47000000  .00016717  00000-0  10270-3 0  9995
2 70147  51.6416 247.4627 0006703 130.5360 325.0288 15.72125391332619
CZ-2C R/B 149
1 70148U 98067A   26264.48000000  .00016717  00000-0  10270-3 0  9997
2 70148  51.6416 247.4627 0006703 130.5360 325.0288 15.72125391332610
H-2A R/B 150
1 70149U 98067A   26264.49000000  .00016717  00000-0  10270-3 0  9999
2 70149  51.6416 247.4627 0006703 130.5360 325.0288 15.72125391332611
ATLAS CENTAUR R/B 151
1 70150U 98067A   26264.50000000  .00016717  00000-0  10270-3 0  9993
2 70150  51.6416 247.4627 0006703 130.5360 325.0288 15.72125391332613
DELTA R/B 152
1 70151U 98067A   26264.51000000  .00016717  00000-0  10270-3 0  9995
2 70151  51.6416 247.4627 0006703 130.5360 325.0288 15.72125391332614
FENGYUN 153
1 70152U 98067A   26264.52000000  .00016717  00000-0  10270-3 0  9997
2 70152  51.6416 247.4627 0006703 130.5360 325.0288 15.72125391332615
YAOGAN 154
1 70153U 98067A   26264.53000000  .00016717  00000-0  10270-3 0  9999
2 70153  51.6416 247.4627 0006703 130.5360 325.0288 15.72125391332616
GAOFEN 155
1 70154U 98067A   26264.54000000  .00016717  00000-0  10270-3 0  9991
2 70154  51.6416 247.4627 0006703 130.5360 325.0288 15.72125391332617
NOAA 156
1 70155U 98067A   26264.55000000  .00016717  00000-0  10270-3 0  9993
2 70155  51.6416 247.4627 0006703 130.5360 325.0288 15.72125391332618
