ISS (ZARYA)
1 25544U 98067A   26266.40000000  .00016717  00000-0  10270-3 0  9991
2 25544  51.6416 247.4627 0006703 130.5360 325.0288 15.72125391332610
CSS (TIANHE)
1 48274U 98067A   26266.40100000  .00016717  00000-0  10270-3 0  9997
2 48274  51.6416 247.4627 0006703 130.5360 325.0288 15.72125391332615
FGRS FREGAT DEB
1 39070U 98067A   26266.40200000  .00016717  00000-0  10270-3 0  9992
2 39070  51.6416 247.4627 0006703 130.5360 325.0288 15.72125391332619
SL-16 R/B
1 22285U 98067A   26266.40300000  .00016717  00000-0  10270-3 0  9993
2 22285  51.6416 247.4627 0006703 130.5360 325.0288 15.72125391332619
PROGRESS-MS 27
1 55345U 98067A   26266.40400000  .00016717  00000-0  10270-3 0  9997
2 55345  51.6416 247.4627 0006703 130.5360 325.0288 15.72125391332612
SOYUZ MS-25
1 58221U 98067A   26266.40500000  .00016717  00000-0  10270-3 0  9994
2 58221  51.6416 247.4627 0006703 130.5360 325.0288 15.72125391332618
CREW DRAGON 8
1 56209U 98067A   26266.40600000  .00016717  00000-0  10270-3 0  9999
2 56209  51.6416 247.4627 0006703 130.5360 325.0288 15.72125391332612
CYGNUS NG-20
1 58899U 98067A   26266.40700000  .00016717  00000-0  10270-3 0  9997
2 58899  51.6416 247.4627 0006703 130.5360 325.0288 15.72125391332619
HST
1 20580U 98067A   26266.40800000  .00016717  00000-0  10270-3 0  9994
2 20580  51.6416 247.4627 0006703 130.5360 325.0288 15.72125391332615
TIANZHOU-7
1 58803U 98067A   26266.40900000  .00016717  00000-0  10270-3 0  9994
2 58803  51.6416 247.4627 0006703 130.5360 325.0288 15.72125391332614
SHENZHOU-18
1 59598U 98067A   26266.41000000  .00016717  00000-0  10270-3 0  9998
2 59598  51.6416 247.4627 0006703 130.5360 325.0288 15.72125391332616
ISS DEB
1 40058U 98067A   26266.41100000  .00016717  00000-0  10270-3 0  9990
2 40058  51.6416 247.4627 0006703 130.5360 325.0288 15.72125391332617
CSS DEB (TIANHE)
1 52905U 98067A   26266.41200000  .00016717  00000-0  10270-3 0  9995
2 52905  51.6416 247.4627 0006703 130.5360 325.0288 15.72125391332611
PROGRESS-MS 26
1 57192U 98067A   26266.41300000  .00016717  00000-0  10270-3 0  9999
2 57192  51.6416 247.4627 0006703 130.5360 325.0288 15.72125391332614
SOYUZ MS-24
1 57160U 98067A   26266.41400000  .00016717  00000-0  10270-3 0  9995
2 57160  51.6416 247.4627 0006703 130.5360 325.0288 15.72125391332619
DRAGON CRS-30
1 59372U 98067A   26266.41500000  .00016717  00000-0  10270-3 0  9993
2 59372  51.6416 247.4627 0006703 130.5360 325.0288 15.72125391332616
CYGNUS NG-19
1 58472U 98067A   26266.41600000  .00016717  00000-0  10270-3 0  9994
2 58472  51.6416 247.4627 0006703 130.5360 325.0288 15.72125391332616
TIANZHOU-6
1 56437U 98067A   26266.41700000  .00016717  00000-0  10270-3 0  9994
2 56437  51.6416 247.4627 0006703 130.5360 325.0288 15.72125391332615
SHENZHOU-17
1 58614U 98067A   26266.41800000  .00016717  00000-0  10270-3 0  9994
2 58614  51.6416 247.4627 0006703 130.5360 325.0288 15.72125391332614
STARLINK-30001
1 60001U 98067A   26266.41900000  .00016717  00000-0  10270-3 0  9998
2 60001  51.6416 247.4627 0006703 130.5360 325.0288 15.72125391332617
